{
  "type": "FeatureCollection",
  "features": [
    {
      "type": "Feature",
      "properties": {
        "norad_id": 58701,
        "name": "TIANMU-1 16",
        "group": "weather",
        "lat": 61.37130436151794,
        "lon": 162.25282489293704,
        "alt_km": 489.11093202517986,
        "timestamp": "2025-12-21T07:34:34.188031+00:00",
        "meta_object_name": "TIANMU-1 16",
        "meta_object_id": "2024-004B",
        "meta_epoch": "2025-12-20T21:51:08.057088",
        "meta_mean_motion": 15.24532941,
        "meta_eccentricity": 0.00043302,
        "meta_inclination": 97.456,
        "meta_ra_of_asc_node": 175.7313,
        "meta_arg_of_pericenter": 258.9484,
        "meta_mean_anomaly": 101.1266,
        "meta_ephemeris_type": 0,
        "meta_classification_type": "U",
        "meta_norad_cat_id": 58701,
        "meta_element_set_no": 999,
        "meta_rev_at_epoch": 10859,
        "meta_bstar": 0.00020134247,
        "meta_mean_motion_dot": 4.883e-05,
        "meta_mean_motion_ddot": 0,
        "tle_line1": "1 58701U 24004B   25354.91050992  .00004883  00000+0  20134-3 0  9990",
        "tle_line2": "2 58701  97.4560 175.7313 0004330 258.9484 101.1266 15.24532941108597"
      },
      "geometry": {
        "type": "Point",
        "coordinates": [
          162.25282489293704,
          61.37130436151794
        ]
      }
    },
    {
      "type": "Feature",
      "properties": {
        "norad_id": 58702,
        "name": "TIANMU-1 17",
        "group": "weather",
        "lat": 31.46803725612028,
        "lon": 1.1485028078264954,
        "alt_km": 491.23419068056137,
        "timestamp": "2025-12-21T07:34:34.188041+00:00",
        "meta_object_name": "TIANMU-1 17",
        "meta_object_id": "2024-004C",
        "meta_epoch": "2025-12-20T23:03:07.656192",
        "meta_mean_motion": 15.24577137,
        "meta_eccentricity": 0.00035148,
        "meta_inclination": 97.4595,
        "meta_ra_of_asc_node": 176.1953,
        "meta_arg_of_pericenter": 260.5389,
        "meta_mean_anomaly": 99.5451,
        "meta_ephemeris_type": 0,
        "meta_classification_type": "U",
        "meta_norad_cat_id": 58702,
        "meta_element_set_no": 999,
        "meta_rev_at_epoch": 10859,
        "meta_bstar": 0.00019366876,
        "meta_mean_motion_dot": 4.7e-05,
        "meta_mean_motion_ddot": 0,
        "tle_line1": "1 58702U 24004C   25354.96050528  .00004700  00000+0  19367-3 0  9995",
        "tle_line2": "2 58702  97.4595 176.1953 0003514 260.5389  99.5451 15.24577137108599"
      },
      "geometry": {
        "type": "Point",
        "coordinates": [
          1.1485028078264954,
          31.46803725612028
        ]
      }
    },
    {
      "type": "Feature",
      "properties": {
        "norad_id": 58703,
        "name": "TIANMU-1 18",
        "group": "weather",
        "lat": -58.501510064392505,
        "lon": -15.603544309895128,
        "alt_km": 497.36737834290216,
        "timestamp": "2025-12-21T07:34:34.188050+00:00",
        "meta_object_name": "TIANMU-1 18",
        "meta_object_id": "2024-004D",
        "meta_epoch": "2025-12-20T22:39:12.729312",
        "meta_mean_motion": 15.24561707,
        "meta_eccentricity": 0.000286,
        "meta_inclination": 97.4612,
        "meta_ra_of_asc_node": 176.3758,
        "meta_arg_of_pericenter": 258.115,
        "meta_mean_anomaly": 101.9767,
        "meta_ephemeris_type": 0,
        "meta_classification_type": "U",
        "meta_norad_cat_id": 58703,
        "meta_element_set_no": 999,
        "meta_rev_at_epoch": 10859,
        "meta_bstar": 0.00019125318,
        "meta_mean_motion_dot": 4.638e-05,
        "meta_mean_motion_ddot": 0,
        "tle_line1": "1 58703U 24004D   25354.94389733  .00004638  00000+0  19125-3 0  9999",
        "tle_line2": "2 58703  97.4612 176.3758 0002860 258.1150 101.9767 15.24561707108591"
      },
      "geometry": {
        "type": "Point",
        "coordinates": [
          -15.603544309895128,
          -58.501510064392505
        ]
      }
    },
    {
      "type": "Feature",
      "properties": {
        "norad_id": 58990,
        "name": "INSAT-3DS",
        "group": "weather",
        "lat": -0.02758274828899508,
        "lon": -74.11985276999039,
        "alt_km": 35781.46697006117,
        "timestamp": "2025-12-21T07:34:34.188060+00:00",
        "meta_object_name": "INSAT-3DS",
        "meta_object_id": "2024-033A",
        "meta_epoch": "2025-12-20T22:10:53.090112",
        "meta_mean_motion": 1.00272163,
        "meta_eccentricity": 0.00010979,
        "meta_inclination": 0.0538,
        "meta_ra_of_asc_node": 103.3179,
        "meta_arg_of_pericenter": 169.5805,
        "meta_mean_anomaly": 231.6798,
        "meta_ephemeris_type": 0,
        "meta_classification_type": "U",
        "meta_norad_cat_id": 58990,
        "meta_element_set_no": 999,
        "meta_rev_at_epoch": 4528,
        "meta_bstar": 0,
        "meta_mean_motion_dot": -1.33e-06,
        "meta_mean_motion_ddot": 0,
        "tle_line1": "1 58990U 24033A   25354.92422558 -.00000133  00000+0  00000+0 0  9995",
        "tle_line2": "2 58990   0.0538 103.3179 0001097 169.5805 231.6798  1.00272163 45281"
      },
      "geometry": {
        "type": "Point",
        "coordinates": [
          -74.11985276999039,
          -0.02758274828899508
        ]
      }
    },
    {
      "type": "Feature",
      "properties": {
        "norad_id": 59051,
        "name": "METEOR-M2 4",
        "group": "weather",
        "lat": 32.88022335786609,
        "lon": 137.75628362518393,
        "alt_km": 819.9143018321201,
        "timestamp": "2025-12-21T07:34:34.188107+00:00",
        "meta_object_name": "METEOR-M2 4",
        "meta_object_id": "2024-039A",
        "meta_epoch": "2025-12-20T22:26:52.541376",
        "meta_mean_motion": 14.22402464,
        "meta_eccentricity": 0.00066006,
        "meta_inclination": 98.6778,
        "meta_ra_of_asc_node": 311.7161,
        "meta_arg_of_pericenter": 334.3272,
        "meta_mean_anomaly": 25.7577,
        "meta_ephemeris_type": 0,
        "meta_classification_type": "U",
        "meta_norad_cat_id": 59051,
        "meta_element_set_no": 999,
        "meta_rev_at_epoch": 9392,
        "meta_bstar": 2.3875344e-05,
        "meta_mean_motion_dot": 9e-08,
        "meta_mean_motion_ddot": 0,
        "tle_line1": "1 59051U 24039A   25354.93533034  .00000009  00000+0  23875-4 0  9994",
        "tle_line2": "2 59051  98.6778 311.7161 0006600 334.3272  25.7577 14.22402464 93928"
      },
      "geometry": {
        "type": "Point",
        "coordinates": [
          137.75628362518393,
          32.88022335786609
        ]
      }
    },
    {
      "type": "Feature",
      "properties": {
        "norad_id": 60133,
        "name": "GOES 19",
        "group": "weather",
        "lat": -0.005820715033121985,
        "lon": 128.58068302631486,
        "alt_km": 35790.83668472925,
        "timestamp": "2025-12-21T07:34:34.188118+00:00",
        "meta_object_name": "GOES 19",
        "meta_object_id": "2024-119A",
        "meta_epoch": "2025-12-20T21:25:57.392832",
        "meta_mean_motion": 1.00270636,
        "meta_eccentricity": 0.00010857,
        "meta_inclination": 0.0199,
        "meta_ra_of_asc_node": 182.6617,
        "meta_arg_of_pericenter": 142.117,
        "meta_mean_anomaly": 11.2391,
        "meta_ephemeris_type": 0,
        "meta_classification_type": "U",
        "meta_norad_cat_id": 60133,
        "meta_element_set_no": 999,
        "meta_rev_at_epoch": 517,
        "meta_bstar": 0,
        "meta_mean_motion_dot": -2.25e-06,
        "meta_mean_motion_ddot": 0,
        "tle_line1": "1 60133U 24119A   25354.89302538 -.00000225  00000+0  00000+0 0  9995",
        "tle_line2": "2 60133   0.0199 182.6617 0001085 142.1170  11.2391  1.00270636  5170"
      },
      "geometry": {
        "type": "Point",
        "coordinates": [
          128.58068302631486,
          -0.005820715033121985
        ]
      }
    },
    {
      "type": "Feature",
      "properties": {
        "norad_id": 65815,
        "name": "FENGYUN 3H",
        "group": "weather",
        "lat": -50.74769106804483,
        "lon": -54.53073436586252,
        "alt_km": 833.0356650535687,
        "timestamp": "2025-12-21T07:34:34.188129+00:00",
        "meta_object_name": "FENGYUN 3H",
        "meta_object_id": "2025-219A",
        "meta_epoch": "2025-12-20T21:40:16.930272",
        "meta_mean_motion": 14.19906691,
        "meta_eccentricity": 7.395e-05,
        "meta_inclination": 98.6596,
        "meta_ra_of_asc_node": 294.3164,
        "meta_arg_of_pericenter": 105.6491,
        "meta_mean_anomaly": 254.4767,
        "meta_ephemeris_type": 0,
        "meta_classification_type": "U",
        "meta_norad_cat_id": 65815,
        "meta_element_set_no": 999,
        "meta_rev_at_epoch": 1208,
        "meta_bstar": 4.12111e-05,
        "meta_mean_motion_dot": 4.4e-07,
        "meta_mean_motion_ddot": 0,
        "tle_line1": "1 65815U 25219A   25354.90297373  .00000044  00000+0  41211-4 0  9993",
        "tle_line2": "2 65815  98.6596 294.3164 0000739 105.6491 254.4767 14.19906691 12086"
      },
      "geometry": {
        "type": "Point",
        "coordinates": [
          -54.53073436586252,
          -50.74769106804483
        ]
      }
    }
  ]
}